OTTER                   
1 62623U 25009Q   26068.72300813  .00012198  00000+0  45151-3 0  9990
2 62623  97.4065 151.3812 0003573 310.7710  49.3219 15.27809545 63722
STARLINK-33680          
1 63287U 25053Y   26068.53585356  .00026875  00000+0  98199-3 0  9999
2 63287  43.0018 242.3219 0001014 208.3718 151.7079 15.27599733 56228
